[{"OBJECT_NAME":"TEVEL2-4","OBJECT_ID":"2025-052D","EPOCH":"2026-03-09T16:39:37.129536","MEAN_MOTION":15.30925813,"ECCENTRICITY":0.0004733,"INCLINATION":97.4009,"RA_OF_ASC_NODE":325.1237,"ARG_OF_PERICENTER":95.3468,"MEAN_ANOMALY":264.8313,"EPHEMERIS_TYPE":0,"CLASSIFICATION_TYPE":"U","NORAD_CAT_ID":63213,"ELEMENT_SET_NO":999,"REV_AT_EPOCH":5487,"BSTAR":0.00070362503,"MEAN_MOTION_DOT":0.0002099,"MEAN_MOTION_DDOT":0},{"OBJECT_NAME":"STARLINK-34859","OBJECT_ID":"2025-189AB","EPOCH":"2026-03-09T16:25:26.982048","MEAN_MOTION":15.30202852,"ECCENTRICITY":9.208e-5,"INCLINATION":53.1585,"RA_OF_ASC_NODE":206.9335,"ARG_OF_PERICENTER":89.5242,"MEAN_ANOMALY":270.5864,"EPHEMERIS_TYPE":0,"CLASSIFICATION_TYPE":"U","NORAD_CAT_ID":65348,"ELEMENT_SET_NO":999,"REV_AT_EPOCH":3110,"BSTAR":0.00081203436,"MEAN_MOTION_DOT":0.0002377,"MEAN_MOTION_DDOT":0}]
